GONETS-M 19             
1 46488U 20068C   26157.92541862  .00000012  00000+0  11589-4 0  9994
2 46488  82.4970 353.4581 0014476  70.1854 290.0785 12.42891801257975
DEKART                  
1 46493U 20068H   26157.92202612  .00014440  00000+0  39933-3 0  9999
2 46493  97.8746 166.4588 0007651 331.5189  28.5635 15.37114997314190
NORBI                   
1 46494U 20068J   26157.94530749  .00025400  00000+0  48653-3 0  9994
2 46494  97.8635 173.0109 0004610 298.8474  61.2312 15.48020849314623
SALSAT                  
1 46495U 20068K   26157.74488443  .00010129  00000+0  35498-3 0  9991
2 46495  97.8851 160.1753 0009049 349.8452  10.2602 15.29647918313761
ICEYE-X6                
1 46497U 20068M   26157.94899141  .00002767  00000+0  20255-3 0  9990
2 46497  98.0965 151.1323 0008556 118.9450 241.2634 15.04461902311691
NETSAT-4                
1 46504U 20068U   26157.75337211  .00022196  00000+0  49614-3 0  9991
2 46504  97.8609 165.1587 0005201  19.7037 340.4410 15.43515061314160
NETSAT-3                
1 46505U 20068V   26157.55694504  .00023360  00000+0  54337-3 0  9993
2 46505  97.8660 163.1764 0005633  37.8178 322.3462 15.42309856314044
NETSAT-1                
1 46506U 20068W   26157.57162386  .00016988  00000+0  51189-3 0  9994
2 46506  97.8751 157.6478 0006191  61.7667 298.4199 15.34388994313674
NETSAT-2                
1 46507U 20068X   26157.54851792  .00028336  00000+0  59055-3 0  9998
2 46507  97.8623 164.7938 0004854  55.5994 304.5712 15.45537706314097
TIANQI-6                
1 46810U 20076D   26157.53925523  .00004638  00000+0  30400-3 0  9999
2 46810  34.9982 113.8100 0009215  74.3883 285.7843 15.07111381306970
KSM1-C                  
1 46906U 20081B   26157.89174404  .00011569  00000+0  43504-3 0  9994
2 46906  36.8938 122.4945 0001268 188.5594 171.5134 15.26568104307592
KSM1-D                  
1 46907U 20081C   26157.87986017  .00010689  00000+0  42704-3 0  9997
2 46907  36.8954 131.3785 0003765 196.5774 163.4852 15.24575905307520
KSM1-A                  
1 46912U 20081H   26157.82426698  .00012061  00000+0  46392-3 0  9995
2 46912  36.8949 125.2278 0004483 242.4007 117.6287 15.25796665307596
R2                      
1 46913U 20081J   26152.08134849  .00008820  00000+0  34667-3 0  9993
2 46913  36.8961 160.5241 0006826 158.1099 201.9942 15.25182244309522
KSM1-B                  
1 46914U 20081K   26157.61989454  .00009459  00000+0  38076-3 0  9995
2 46914  36.9007 133.5575 0006052 206.7872 153.2564 15.24361321310575
GONETS-M 20             
1 47227U 20091A   26157.94393932  .00000069  00000+0  42360-3 0  9999
2 47227  82.5044 308.8044 0020727 200.2628 159.7631 12.42893370249806
GONETS-M 21             
1 47228U 20091B   26157.91775233  .00000088  00000+0  56458-3 0  9999
2 47228  82.4969 307.5339 0014291 213.7614 146.2557 12.42886434249797
GONETS-M 22             
1 47229U 20091C   26157.89089282  .00000092  00000+0  59132-3 0  9996
2 47229  82.5027 308.4445 0021660 195.7498 164.2910 12.42892497249743
CUBEL                   
1 47448U 21006AM  26157.64263631  .00010233  00000+0  25125-3 0  9994
2 47448  97.2334 208.3285 0006122 195.5847 164.5212 15.40849674298137
ARKTIKA-M 1             
1 47719U 21016A   26153.03917935 -.00000200  00000+0  00000+0 0  9993
2 47719  63.2379  59.8266 7283239 269.8643  14.6915  2.00628509 38489
STARLINK-2342           
1 47883U 21021Z   26157.91670139  .01095168  00000+0  62954-2 0  9990
2 47883  53.1583 199.4215 0001618  74.2488 249.3998 15.75600605  5933
GRUS-1B                 
1 47934U 21022C   26157.96343227  .00002556  00000+0  21526-3 0  9997
2 47934  97.5401  41.4964 0016531   4.3930 355.7435 14.98971812284363
UNISAT-7                
1 47945U 21022P   26157.63535893  .00017177  00000+0  42874-3 0  9999
2 47945  97.3897  62.4512 0011154 109.0982 251.1473 15.40181351288230
GLOBAL-9                
1 47971U 21023G   26157.14267045  .00030281  00000+0  60815-3 0  9992
2 47971  44.9824 312.5856 0005278 262.2365  97.7925 15.46164247293237
AII-BRAVO               
1 48270U 21034C   26157.97138924  .00005743  00000+0  42656-3 0  9999
2 48270  97.5611 213.1136 0004903 303.7847  56.2912 15.03396223278081
TYVAK-182A              
1 48271U 21034D   26157.96603072  .00005962  00000+0  41216-3 0  9994
2 48271  97.5731 217.0612 0006087  21.4707 338.6775 15.06077695278290
CSS (TIANHE)            
1 48274U 21035A   26157.67381585  .00028669  00000+0  34211-3 0  9994
2 48274  41.4692  25.9625 0009150 355.7318   4.3441 15.60361832291529
TYVAK-0130              
1 48606U 21041BF  26157.05312144  .00010828  00000+0  40997-3 0  9993
2 48606  52.9953  77.7876 0011070 130.4252 229.7712 15.27409165278688
