OBJECT_NAME,OBJECT_ID,EPOCH,MEAN_MOTION,ECCENTRICITY,INCLINATION,RA_OF_ASC_NODE,ARG_OF_PERICENTER,MEAN_ANOMALY,EPHEMERIS_TYPE,CLASSIFICATION_TYPE,NORAD_CAT_ID,ELEMENT_SET_NO,REV_AT_EPOCH,BSTAR,MEAN_MOTION_DOT,MEAN_MOTION_DDOT
GONETS-M 19,2020-068C,2026-06-06T22:12:36.168768,12.42891801,.00144761,82.4970,353.4581,70.1854,290.0785,0,U,46488,999,25797,.11589121E-4,.12E-6,0
DEKART,2020-068H,2026-06-06T22:07:43.056768,15.37114997,.00076512,97.8746,166.4588,331.5189,28.5635,0,U,46493,999,31419,.39932781E-3,.1444E-3,0
NORBI,2020-068J,2026-06-06T22:41:14.567136,15.48020849,.000461,97.8635,173.0109,298.8474,61.2312,0,U,46494,999,31462,.48652901E-3,.254E-3,0
SALSAT,2020-068K,2026-06-06T17:52:38.014752,15.29647918,.00090499,97.8851,160.1753,349.8452,10.2602,0,U,46495,999,31376,.35497906E-3,.10129E-3,0
ICEYE-X6,2020-068M,2026-06-06T22:46:32.857824,15.04461902,.00085561,98.0965,151.1323,118.9450,241.2634,0,U,46497,999,31169,.20255098E-3,.2767E-4,0
NETSAT-4,2020-068U,2026-06-06T18:04:51.350304,15.43515061,.00052019,97.8609,165.1587,19.7037,340.4410,0,U,46504,999,31416,.49614109E-3,.22196E-3,0
NETSAT-3,2020-068V,2026-06-06T13:22:00.051456,15.42309856,.00056337,97.8660,163.1764,37.8178,322.3462,0,U,46505,999,31404,.54337003E-3,.2336E-3,0
NETSAT-1,2020-068W,2026-06-06T13:43:08.301504,15.34388994,.00061912,97.8751,157.6478,61.7667,298.4199,0,U,46506,999,31367,.51189457E-3,.16988E-3,0
NETSAT-2,2020-068X,2026-06-06T13:09:51.948288,15.45537706,.00048546,97.8623,164.7938,55.5994,304.5712,0,U,46507,999,31409,.59055274E-3,.28336E-3,0
TIANQI-6,2020-076D,2026-06-06T12:56:31.651872,15.07111381,.0009215,34.9982,113.8100,74.3883,285.7843,0,U,46810,999,30697,.304E-3,.4638E-4,0
KSM1-C,2020-081B,2026-06-06T21:24:06.685056,15.26568104,.00012686,36.8938,122.4945,188.5594,171.5134,0,U,46906,999,30759,.43503803E-3,.11569E-3,0
KSM1-D,2020-081C,2026-06-06T21:06:59.918688,15.24575905,.00037659,36.8954,131.3785,196.5774,163.4852,0,U,46907,999,30752,.42704045E-3,.10689E-3,0
KSM1-A,2020-081H,2026-06-06T19:46:56.667072,15.25796665,.00044837,36.8949,125.2278,242.4007,117.6287,0,U,46912,999,30759,.4639249E-3,.12061E-3,0
R2,2020-081J,2026-06-01T01:57:08.509536,15.25182244,.00068263,36.8961,160.5241,158.1099,201.9942,0,U,46913,999,30952,.346666E-3,.882E-4,0
KSM1-B,2020-081K,2026-06-06T14:52:38.888256,15.24361321,.0006052,36.9007,133.5575,206.7872,153.2564,0,U,46914,999,31057,.38076E-3,.9459E-4,0
GONETS-M 20,2020-091A,2026-06-06T22:39:16.357248,12.42893370,.0020727,82.5044,308.8044,200.2628,159.7631,0,U,47227,999,24980,.42359942E-3,.69E-6,0
GONETS-M 21,2020-091B,2026-06-06T22:01:33.801312,12.42886434,.00142914,82.4969,307.5339,213.7614,146.2557,0,U,47228,999,24979,.56458404E-3,.88E-6,0
GONETS-M 22,2020-091C,2026-06-06T21:22:53.139648,12.42892497,.00216608,82.5027,308.4445,195.7498,164.2910,0,U,47229,999,24974,.591316E-3,.92E-6,0
CUBEL,2021-006AM,2026-06-06T15:25:23.777184,15.40849674,.00061229,97.2334,208.3285,195.5847,164.5212,0,U,47448,999,29813,.25125414E-3,.10233E-3,0
ARKTIKA-M 1,2021-016A,2026-06-02T00:56:25.095840,2.00628509,.72832396,63.2379,59.8266,269.8643,14.6915,0,U,47719,999,3848,0,-.2E-5,0
STARLINK-2342,2021-021Z,2026-06-06T22:00:03.000096,15.75600605,.00016184,53.1583,199.4215,74.2488,249.3998,0,U,47883,999,593,.6295357E-2,.1095168E-1,0
GRUS-1B,2021-022C,2026-06-06T23:07:20.548128,14.98971812,.00165311,97.5401,41.4964,4.3930,355.7435,0,U,47934,999,28436,.21526364E-3,.2556E-4,0
UNISAT-7,2021-022P,2026-06-06T15:14:55.011552,15.40181351,.00111543,97.3897,62.4512,109.0982,251.1473,0,U,47945,999,28823,.42874481E-3,.17177E-3,0
GLOBAL-9,2021-023G,2026-06-06T03:25:26.726880,15.46164247,.0005278,44.9824,312.5856,262.2365,97.7925,0,U,47971,999,29323,.60815E-3,.30281E-3,0
AII-BRAVO,2021-034C,2026-06-06T23:18:48.030336,15.03396223,.00049034,97.5611,213.1136,303.7847,56.2912,0,U,48270,999,27808,.42655966E-3,.5743E-4,0
TYVAK-182A,2021-034D,2026-06-06T23:11:05.054208,15.06077695,.00060871,97.5731,217.0612,21.4707,338.6775,0,U,48271,999,27829,.41215978E-3,.5962E-4,0
CSS (TIANHE),2021-035A,2026-06-06T16:10:17.689440,15.60361832,.00091504,41.4692,25.9625,355.7318,4.3441,0,U,48274,999,29152,.3421058E-3,.28669E-3,0
TYVAK-0130,2021-041BF,2026-06-06T01:16:29.692416,15.27409165,.001107,52.9953,77.7876,130.4252,229.7712,0,U,48606,999,27868,.40997E-3,.10828E-3,0
